FENGYUN 1C DEB          
1 31171U 99025BHZ 23250.94187677  .00005710  00000+0  25290-2 0  9991
2 31171  98.0482 302.2285 0205551 237.6205 249.7966 14.12831809840979
FENGYUN 1C DEB          
1 31172U 99025BJA 23249.49358358  .00000303  00000+0  11884-3 0  9994
2 31172  98.4521 267.1751 0151596 197.4191 162.1759 14.30144527857825
FENGYUN 1C DEB          
1 31173U 99025BJB 23246.22163730  .00002952  00000+0  17838-2 0  9997
2 31173  98.1947  32.1147 0073481 313.8814  45.6302 14.05883401522715
FENGYUN 1C DEB          
1 31174U 99025BJC 23248.15254451  .00013904  00000+0  35576-2 0  9991
2 31174  99.0595 133.4751 0017344  75.8482  76.1844 14.50424322851373
FENGYUN 1C DEB          
1 31175U 99025BJD 23250.79509795  .00007992  00000+0  33476-2 0  9996
2 31175  98.3999 257.8724 0136452 123.9798 237.4433 14.21324095844857
FENGYUN 1C DEB          
1 31177U 99025BJF 23249.46940288  .00003727  00000+0  41218-2 0  9991
2 31177  98.7654 241.2406 0335584 299.3868 214.7101 13.50692719549829
FENGYUN 1C DEB          
1 31178U 99025BJG 23250.64046834  .00003443  00000+0  18189-2 0  9994
2 31178  99.4602 188.2011 0149440 104.6718 257.1069 14.08952338841121
FENGYUN 1C DEB          
1 31179U 99025BJH 23247.30738327  .00001690  00000+0  11880-2 0  9992
2 31179  99.0988 277.5755 0226222  95.3245 267.3766 13.87910761504041
FENGYUN 1C DEB          
1 31180U 99025BJJ 23250.25787215  .00000639  00000+0  32429-3 0  9997
2 31180  99.1063  47.7877 0507678  70.6088  47.8460 13.67928379527430
FENGYUN 1C DEB          
1 31181U 99025BJK 23250.05314950  .00001543  00000+0  93284-3 0  9999
2 31181  98.8513 288.9793 0049668 250.3153 138.0346 14.07418195841062
FENGYUN 1C DEB          
1 31182U 99025BJL 23250.80028812  .00000638  00000+0  36786-3 0  9990
2 31182  98.6450 254.9939 0023319 342.2030 194.1126 14.12447312843987
FENGYUN 1C DEB          
1 31183U 99025BJM 23250.59306890  .00002536  00000+0  85905-3 0  9998
2 31183  98.9691 176.4919 0060696  43.3784  82.0745 14.36652748855508
FENGYUN 1C DEB          
1 31185U 99025BJP 23249.74341168  .00000534  00000+0  37380-3 0  9992
2 31185  98.8273 260.8463 0040487 256.5251 103.1402 14.02292801507298
FENGYUN 1C DEB          
1 31186U 99025BJQ 23250.47793146  .00000665  00000+0  39764-3 0  9995
2 31186  99.2326 134.2207 0025282 217.6260 268.3216 14.10657209846577
FENGYUN 1C DEB          
1 31187U 99025BJR 23248.13137848  .00014842  00000+0  38299-2 0  9990
2 31187  99.2471  33.8691 0348238 130.7038 232.4947 14.19544093839892
FENGYUN 1C DEB          
1 31188U 99025BJS 23250.47373010  .00002780  00000+0  14198-2 0  9994
2 31188  98.8106 314.4925 0069094 108.4985   9.6344 14.15200247845993
FENGYUN 1C DEB          
1 31190U 99025BJU 23251.04431935  .00000927  00000+0  63715-3 0  9993
2 31190  98.8969 277.0664 0074497  43.1101 317.5865 14.00577005840138
FENGYUN 1C DEB          
1 31191U 99025BJV 23250.57414274  .00001009  00000+0  33571-3 0  9997
2 31191  98.8752 116.7794 0098784 124.5697 236.4858 14.37228475861162
FENGYUN 1C DEB          
1 31192U 99025BJW 23250.27495066  .00001515  00000+0  53982-3 0  9993
2 31192  98.5029 253.2485 0268815 341.2424  17.8991 14.17497737850064
FENGYUN 1C DEB          
1 31194U 99025BJY 23251.04191863  .00002364  00000+0  91789-3 0  9999
2 31194  99.0461  96.2939 0063401 169.5603 190.6911 14.29806651852847
FENGYUN 1C DEB          
1 31195U 99025BJZ 23247.82645515  .00000301  00000+0  17956-3 0  9992
2 31195  98.8892 288.1046 0173336 357.1016   2.9134 14.07170210844233
FENGYUN 1C DEB          
1 31196U 99025BKA 23250.91295481  .00001222  00000+0  56153-3 0  9995
2 31196  98.5849 275.8570 0062502 100.4376 260.3854 14.21921170852804
FENGYUN 1C DEB          
1 31198U 99025BKC 23250.71104848  .00000089  00000+0  11234-3 0  9992
2 31198  98.5205  66.8229 0205872  53.6893 308.3077 13.75118699513854
FENGYUN 1C DEB          
1 31199U 99025BKD 23250.25997559  .00000238  00000+0  15849-3 0  9993
2 31199  98.6556 251.4992 0066477  84.5596 290.9565 14.08905474845031
FENGYUN 1C DEB          
1 31201U 99025BKF 23250.73693469  .00002831  00000+0  10247-2 0  9990
2 31201  99.0502  66.5354 0157200 236.5934 188.0017 14.27672318854182
FENGYUN 1C DEB          
1 31202U 99025BKG 23250.77004924  .00004949  00000+0  95400-3 0  9994
2 31202  96.5728  81.9687 0104779  30.5495  28.3790 14.60334139869927
FENGYUN 1C DEB          
1 31203U 99025BKH 23250.82008349  .00015277  00000+0  52611-2 0  9998
2 31203  98.9809  22.8013 0054586 142.5979 217.9024 14.35171426849656
FENGYUN 1C DEB          
1 31205U 99025BKK 23250.55330553  .00000265  00000+0  12190-3 0  9995
2 31205  99.3168 289.1414 0164594  35.8985 325.3119 14.23029899854429
FENGYUN 1C DEB          
1 31206U 99025BKL 23250.60384238  .00001493  00000+0  52059-3 0  9993
2 31206  98.9173 120.8238 0082791 283.3421  75.8542 14.35011717859604
FENGYUN 1C DEB          
1 31208U 99025BKN 23246.11456546  .00005729  00000+0  19201-2 0  9995
2 31208  99.2524 301.8093 0023566 212.6476 177.2789 14.37561624855942
FENGYUN 1C DEB          
1 31209U 99025BKP 23243.41249756  .00003709  00000+0  16007-2 0  9996
2 31209  98.9189 304.2735 0028141 267.7049  92.0907 14.24878405528540
FENGYUN 1C DEB          
1 31210U 99025BKQ 23251.00599436  .00000560  00000+0  34060-3 0  9997
2 31210  98.7299 265.0156 0017110 348.0293  40.9064 14.10079751843628
FENGYUN 1C DEB          
1 31211U 99025BKR 23250.33397741  .00001853  00000+0  97931-3 0  9990
2 31211  98.7444 292.1467 0052741 302.3280  57.2792 14.14320247515735
FENGYUN 1C DEB          
1 31212U 99025BKS 23250.21149093  .00003082  00000+0  18636-2 0  9993
2 31212  99.2532 248.8046 0082233 318.6756  40.8208 14.05631597840013
FENGYUN 1C DEB          
1 31213U 99025BKT 23250.64942237  .00039585  00000+0  84388-2 0  9996
2 31213  99.4477  31.7969 0019809 265.3830  94.5103 14.58631012853134
FENGYUN 1C DEB          
1 31214U 99025BKU 23250.75660321  .00011985  00000+0  40561-2 0  9999
2 31214  98.8888 339.5883 0019570  86.4635  67.0022 14.36838843850935
FENGYUN 1C DEB          
1 31215U 99025BKV 23250.66125425  .00003812  00000+0  15979-2 0  9996
2 31215  99.0621  48.6860 0078236 195.8107 164.0627 14.24944931847084
FENGYUN 1C DEB          
1 31217U 99025BKX 23250.79116457  .00001449  00000+0  74955-3 0  9991
2 31217  98.6806 271.2752 0105101  10.8794 349.4618 14.13669571846484
FENGYUN 1C DEB          
1 31218U 99025BKY 23251.12485421  .00007421  00000+0  26760-2 0  9996
2 31218  98.8685 309.0934 0027113  11.7768 348.4044 14.33720584851168
FENGYUN 1C DEB          
1 31219U 99025BKZ 23249.38983546  .00002635  00000+0  16021-2 0  9994
2 31219  99.2330 223.7022 0088252 325.8257  33.7248 14.05217314839510
FENGYUN 1C DEB          
1 31220U 99025BLA 23250.83981573  .00018118  00000+0  36245-2 0  9999
2 31220  99.0330 254.3208 0048262 102.4647  19.1092 14.61141978862396
FENGYUN 1C DEB          
1 31222U 99025BLC 23249.42531406  .00004074  00000+0  38521-3 0  9996
2 31222  98.6650 234.1041 0231073 211.9510 146.7510 14.76303757876767
FENGYUN 1C DEB          
1 31223U 99025BLD 23250.74878328  .00006573  00000+0  61750-2 0  9996
2 31223  98.9816 177.0351 0277409  61.3245 301.5490 13.65945724813895
FENGYUN 1C DEB          
1 31224U 99025BLE 23250.85235160  .00001314  00000+0  49687-3 0  9994
2 31224  98.3673 267.5926 0167043  79.2558  45.0383 14.25376894854643
FENGYUN 1C DEB          
1 31225U 99025BLF 23250.64330108  .00002298  00000+0  12644-2 0  9994
2 31225  99.0468 305.6695 0101769 169.3281 348.1751 14.10045790841338
FENGYUN 1C DEB          
1 31226U 99025BLG 23249.30495671  .00000730  00000+0  30531-3 0  9998
2 31226  98.3867 276.4434 0131763 109.7419 251.8026 14.24211268502517
FENGYUN 1C DEB          
1 31227U 99025BLH 23250.96382551  .00018282  00000+0  56171-2 0  9993
2 31227  98.1593 159.7006 0111286  66.9959 294.2922 14.38069457849584
FENGYUN 1C DEB          
1 31228U 99025BLJ 23250.94944766  .00001422  00000+0  52149-3 0  9994
2 31228  98.9362 127.3207 0084478 353.8602  17.6321 14.32463920857133
FENGYUN 1C DEB          
1 31229U 99025BLK 23251.12868956  .00002976  00000+0  15631-2 0  9991
2 31229  98.9216 314.4009 0062682 137.4476 223.1579 14.13879523843907
FENGYUN 1C DEB          
1 31231U 99025BLM 23249.51158609  .00009349  00000+0  23388-2 0  9990
2 31231  98.8256 354.2722 0268620  89.7814 273.4144 14.32148577510087
FENGYUN 1C DEB          
1 31234U 99025BLQ 23250.82513129  .00000546  00000+0  34636-3 0  9990
2 31234  98.7650 258.0965 0076041  36.8910 323.7456 14.06538709843604
FENGYUN 1C DEB          
1 31235U 99025BLR 23250.77592679  .00006312  00000+0  36885-2 0  9996
2 31235  98.4905  77.6791 0237355 215.9726 142.5261 13.95557186515399
FENGYUN 1C DEB          
1 31236U 99025BLS 23250.51024212  .00004802  00000+0  34639-2 0  9999
2 31236  98.5434 276.4274 0366328 123.3569 240.3208 13.69462048496358
FENGYUN 1C DEB          
1 31237U 99025BLT 23250.51546985  .00001128  00000+0  45763-3 0  9995
2 31237  98.4572 263.1508 0093190 267.0043  92.0472 14.27232118854789
FENGYUN 1C DEB          
1 31238U 99025BLU 23250.49473091  .00023144  00000+0  49410-2 0  9994
2 31238  98.9725 145.1252 0088591 104.6096 256.4943 14.56395077857062
FENGYUN 1C DEB          
1 31239U 99025BLV 23250.51398931  .00000536  00000+0  33698-3 0  9999
2 31239  98.7433 258.8616 0051498  17.7555 135.7674 14.07863478843632
FENGYUN 1C DEB          
1 31241U 99025BLX 23250.68252687  .00001413  00000+0  51312-3 0  9995
2 31241  99.1946 331.1341 0073779  72.4816 288.4412 14.33487302858373
FENGYUN 1C DEB          
1 31243U 99025BLZ 23250.61751601  .00000864  00000+0  56599-3 0  9991
2 31243  98.8336 304.8500 0067016 330.2275  29.5085 14.03654445576894
FENGYUN 1C DEB          
1 31244U 99025BMA 23248.97170633  .00000452  00000+0  29818-3 0  9995
2 31244  99.1370 300.1149 0104135 320.6768  38.6869 14.04350244459992
FENGYUN 1C DEB          
1 31246U 99025BMC 23248.82331245  .00003331  00000+0  21125-2 0  9990
2 31246  98.8791 107.6566 0163749 135.7246 225.7153 13.98156533839200
